{"type": "FeatureCollection", "features": [{"type": "Feature", "properties": {"norad_id": 66380, "name": "STARLINK-35139", "group": "last-30-days", "lat": 52.9264986506317, "lon": 17.137558142765158, "alt_km": 439.72193586693083, "timestamp": "2025-12-09T11:33:53.573621+00:00", "meta": {"OBJECT_NAME": "STARLINK-35139", "OBJECT_ID": "2025-257A", "EPOCH": "2025-12-09T03:22:02.416800", "MEAN_MOTION": 15.39550209, "ECCENTRICITY": 0.0001014, "INCLINATION": 53.1598, "RA_OF_ASC_NODE": 281.6156, "ARG_OF_PERICENTER": 50.3281, "MEAN_ANOMALY": 309.7813, "EPHEMERIS_TYPE": 0, "CLASSIFICATION_TYPE": "U", "NORAD_CAT_ID": 66380, "ELEMENT_SET_NO": 999, "REV_AT_EPOCH": 575, "BSTAR": 0.0012381, "MEAN_MOTION_DOT": 0.0004933, "MEAN_MOTION_DDOT": 0}, "tle": {"line1": "1 66380U 25257A   25343.14030575  .00049330  00000+0  12381-2 0  9991", "line2": "2 66380  53.1598 281.6156 0001014  50.3281 309.7813 15.39550209  5757"}}, "geometry": {"type": "Point", "coordinates": [17.137558142765158, 52.9264986506317]}}, {"type": "Feature", "properties": {"norad_id": 66381, "name": "STARLINK-35158", "group": "last-30-days", "lat": 52.67402822455879, "lon": 20.519874658670663, "alt_km": 438.33709268588154, "timestamp": "2025-12-09T11:33:53.573675+00:00", "meta": {"OBJECT_NAME": "STARLINK-35158", "OBJECT_ID": "2025-257B", "EPOCH": "2025-12-09T01:48:05.870016", "MEAN_MOTION": 15.39706235, "ECCENTRICITY": 0.0002091, "INCLINATION": 53.1605, "RA_OF_ASC_NODE": 281.9206, "ARG_OF_PERICENTER": 124.9586, "MEAN_ANOMALY": 235.1616, "EPHEMERIS_TYPE": 0, "CLASSIFICATION_TYPE": "U", "NORAD_CAT_ID": 66381, "ELEMENT_SET_NO": 999, "REV_AT_EPOCH": 580, "BSTAR": 0.0034761, "MEAN_MOTION_DOT": 0.00141658, "MEAN_MOTION_DDOT": 0}, "tle": {"line1": "1 66381U 25257B   25343.07506794  .00141658  00000+0  34761-2 0  9997", "line2": "2 66381  53.1605 281.9206 0002091 124.9586 235.1616 15.39706235  5809"}}, "geometry": {"type": "Point", "coordinates": [20.519874658670663, 52.67402822455879]}}, {"type": "Feature", "properties": {"norad_id": 66382, "name": "STARLINK-35639", "group": "last-30-days", "lat": 43.68307022473253, "lon": 54.2275833158701, "alt_km": 440.4259425731534, "timestamp": "2025-12-09T11:33:53.573693+00:00", "meta": {"OBJECT_NAME": "STARLINK-35639", "OBJECT_ID": "2025-257C", "EPOCH": "2025-12-09T03:15:19.986336", "MEAN_MOTION": 15.39660835, "ECCENTRICITY": 0.0001197, "INCLINATION": 53.1607, "RA_OF_ASC_NODE": 281.585, "ARG_OF_PERICENTER": 89.718, "MEAN_ANOMALY": 270.3962, "EPHEMERIS_TYPE": 0, "CLASSIFICATION_TYPE": "U", "NORAD_CAT_ID": 66382, "ELEMENT_SET_NO": 999, "REV_AT_EPOCH": 581, "BSTAR": 0.0022161, "MEAN_MOTION_DOT": 0.00089407, "MEAN_MOTION_DDOT": 0}, "tle": {"line1": "1 66382U 25257C   25343.13564799  .00089407  00000+0  22161-2 0  9998", "line2": "2 66382  53.1607 281.5850 0001197  89.7180 270.3962 15.39660835  5818"}}, "geometry": {"type": "Point", "coordinates": [54.2275833158701, 43.68307022473253]}}, {"type": "Feature", "properties": {"norad_id": 66383, "name": "STARLINK-35690", "group": "last-30-days", "lat": 26.56625484645171, "lon": 77.8854481710765, "alt_km": 443.5249665006377, "timestamp": "2025-12-09T11:33:53.573706+00:00", "meta": {"OBJECT_NAME": "STARLINK-35690", "OBJECT_ID": "2025-257D", "EPOCH": "2025-12-09T03:08:39.440256", "MEAN_MOTION": 15.39621685, "ECCENTRICITY": 0.0001237, "INCLINATION": 53.161, "RA_OF_ASC_NODE": 281.5551, "ARG_OF_PERICENTER": 87.6681, "MEAN_ANOMALY": 272.4465, "EPHEMERIS_TYPE": 0, "CLASSIFICATION_TYPE": "U", "NORAD_CAT_ID": 66383, "ELEMENT_SET_NO": 999, "REV_AT_EPOCH": 581, "BSTAR": 0.0019585, "MEAN_MOTION_DOT": 0.00078758, "MEAN_MOTION_DDOT": 0}, "tle": {"line1": "1 66383U 25257D   25343.13101204  .00078758  00000+0  19585-2 0  9990", "line2": "2 66383  53.1610 281.5551 0001237  87.6681 272.4465 15.39621685  5810"}}, "geometry": {"type": "Point", "coordinates": [77.8854481710765, 26.56625484645171]}}, {"type": "Feature", "properties": {"norad_id": 66384, "name": "STARLINK-35662", "group": "last-30-days", "lat": 25.178595898655512, "lon": 79.26187046144902, "alt_km": 443.75953689354446, "timestamp": "2025-12-09T11:33:53.573743+00:00", "meta": {"OBJECT_NAME": "STARLINK-35662", "OBJECT_ID": "2025-257E", "EPOCH": "2025-12-09T03:08:10.702752", "MEAN_MOTION": 15.39635055, "ECCENTRICITY": 0.0001028, "INCLINATION": 53.1603, "RA_OF_ASC_NODE": 281.5541, "ARG_OF_PERICENTER": 91.0689, "MEAN_ANOMALY": 269.0434, "EPHEMERIS_TYPE": 0, "CLASSIFICATION_TYPE": "U", "NORAD_CAT_ID": 66384, "ELEMENT_SET_NO": 999, "REV_AT_EPOCH": 581, "BSTAR": 0.0020943, "MEAN_MOTION_DOT": 0.00084344, "MEAN_MOTION_DDOT": 0}, "tle": {"line1": "1 66384U 25257E   25343.13067943  .00084344  00000+0  20943-2 0  9990", "line2": "2 66384  53.1603 281.5541 0001028  91.0689 269.0434 15.39635055  5811"}}, "geometry": {"type": "Point", "coordinates": [79.26187046144902, 25.178595898655512]}}, {"type": "Feature", "properties": {"norad_id": 66385, "name": "STARLINK-35659", "group": "last-30-days", "lat": 42.61666228525387, "lon": 56.33754505949585, "alt_km": 440.70986382972933, "timestamp": "2025-12-09T11:33:53.573756+00:00", "meta": {"OBJECT_NAME": "STARLINK-35659", "OBJECT_ID": "2025-257F", "EPOCH": "2025-12-09T03:14:51.196128", "MEAN_MOTION": 15.39674603, "ECCENTRICITY": 0.0001308, "INCLINATION": 53.1604, "RA_OF_ASC_NODE": 281.5848, "ARG_OF_PERICENTER": 68.8965, "MEAN_ANOMALY": 291.218, "EPHEMERIS_TYPE": 0, "CLASSIFICATION_TYPE": "U", "NORAD_CAT_ID": 66385, "ELEMENT_SET_NO": 999, "REV_AT_EPOCH": 581, "BSTAR": 0.0022301, "MEAN_MOTION_DOT": 0.00090024, "MEAN_MOTION_DDOT": 0}, "tle": {"line1": "1 66385U 25257F   25343.13531477  .00090024  00000+0  22301-2 0  9991", "line2": "2 66385  53.1604 281.5848 0001308  68.8965 291.2180 15.39674603  5810"}}, "geometry": {"type": "Point", "coordinates": [56.33754505949585, 42.61666228525387]}}, {"type": "Feature", "properties": {"norad_id": 66386, "name": "STARLINK-35651", "group": "last-30-days", "lat": 6.555443807024172, "lon": 94.90892018927048, "alt_km": 446.85918011931517, "timestamp": "2025-12-09T11:33:53.573768+00:00", "meta": {"OBJECT_NAME": "STARLINK-35651", "OBJECT_ID": "2025-257G", "EPOCH": "2025-12-09T03:01:58.103616", "MEAN_MOTION": 15.39623506, "ECCENTRICITY": 0.0001035, "INCLINATION": 53.16, "RA_OF_ASC_NODE": 281.527, "ARG_OF_PERICENTER": 97.4058, "MEAN_ANOMALY": 262.7065, "EPHEMERIS_TYPE": 0, "CLASSIFICATION_TYPE": "U", "NORAD_CAT_ID": 66386, "ELEMENT_SET_NO": 999, "REV_AT_EPOCH": 581, "BSTAR": 0.0019748, "MEAN_MOTION_DOT": 0.00079427, "MEAN_MOTION_DDOT": 0}, "tle": {"line1": "1 66386U 25257G   25343.12636694  .00079427  00000+0  19748-2 0  9993", "line2": "2 66386  53.1600 281.5270 0001035  97.4058 262.7065 15.39623506  5815"}}, "geometry": {"type": "Point", "coordinates": [94.90892018927048, 6.555443807024172]}}, {"type": "Feature", "properties": {"norad_id": 66387, "name": "STARLINK-35661", "group": "last-30-days", "lat": 5.104845015593128, "lon": 96.00777183262903, "alt_km": 447.2669234308851, "timestamp": "2025-12-09T11:33:53.573779+00:00", "meta": {"OBJECT_NAME": "STARLINK-35661", "OBJECT_ID": "2025-257H", "EPOCH": "2025-12-09T03:01:29.608032", "MEAN_MOTION": 15.39623681, "ECCENTRICITY": 0.0001038, "INCLINATION": 53.1594, "RA_OF_ASC_NODE": 281.5253, "ARG_OF_PERICENTER": 87.1065, "MEAN_ANOMALY": 273.0059, "EPHEMERIS_TYPE": 0, "CLASSIFICATION_TYPE": "U", "NORAD_CAT_ID": 66387, "ELEMENT_SET_NO": 999, "REV_AT_EPOCH": 581, "BSTAR": 0.0012949, "MEAN_MOTION_DOT": 0.00051755, "MEAN_MOTION_DDOT": 0}, "tle": {"line1": "1 66387U 25257H   25343.12603713  .00051755  00000+0  12949-2 0  9990", "line2": "2 66387  53.1594 281.5253 0001038  87.1065 273.0059 15.39623681  5818"}}, "geometry": {"type": "Point", "coordinates": [96.00777183262903, 5.104845015593128]}}, {"type": "Feature", "properties": {"norad_id": 66388, "name": "STARLINK-35647", "group": "last-30-days", "lat": -13.71979311627051, "lon": 110.34775514950728, "alt_km": 450.7096573300123, "timestamp": "2025-12-09T11:33:53.573791+00:00", "meta": {"OBJECT_NAME": "STARLINK-35647", "OBJECT_ID": "2025-257J", "EPOCH": "2025-12-09T02:55:18.642720", "MEAN_MOTION": 15.39514665, "ECCENTRICITY": 0.0001077, "INCLINATION": 53.1581, "RA_OF_ASC_NODE": 281.4976, "ARG_OF_PERICENTER": 1.9018, "MEAN_ANOMALY": 358.1991, "EPHEMERIS_TYPE": 0, "CLASSIFICATION_TYPE": "U", "NORAD_CAT_ID": 66388, "ELEMENT_SET_NO": 999, "REV_AT_EPOCH": 581, "BSTAR": 0.00049046, "MEAN_MOTION_DOT": 0.000192, "MEAN_MOTION_DDOT": 0}, "tle": {"line1": "1 66388U 25257J   25343.12174355  .00019200  00000+0  49046-3 0  9994", "line2": "2 66388  53.1581 281.4976 0001077   1.9018 358.1991 15.39514665  5812"}}, "geometry": {"type": "Point", "coordinates": [110.34775514950728, -13.71979311627051]}}, {"type": "Feature", "properties": {"norad_id": 66389, "name": "STARLINK-35694", "group": "last-30-days", "lat": -34.521357184587366, "lon": 130.78603437972512, "alt_km": 451.5643130178596, "timestamp": "2025-12-09T11:33:53.573802+00:00", "meta": {"OBJECT_NAME": "STARLINK-35694", "OBJECT_ID": "2025-257K", "EPOCH": "2025-12-09T02:48:07.134336", "MEAN_MOTION": 15.39618543, "ECCENTRICITY": 8.85e-05, "INCLINATION": 53.1601, "RA_OF_ASC_NODE": 281.4644, "ARG_OF_PERICENTER": 95.9598, "MEAN_ANOMALY": 264.1508, "EPHEMERIS_TYPE": 0, "CLASSIFICATION_TYPE": "U", "NORAD_CAT_ID": 66389, "ELEMENT_SET_NO": 999, "REV_AT_EPOCH": 581, "BSTAR": 0.001691, "MEAN_MOTION_DOT": 0.00067841, "MEAN_MOTION_DDOT": 0}, "tle": {"line1": "1 66389U 25257K   25343.11674924  .00067841  00000+0  16910-2 0  9998", "line2": "2 66389  53.1601 281.4644 0000885  95.9598 264.1508 15.39618543  5810"}}, "geometry": {"type": "Point", "coordinates": [130.78603437972512, -34.521357184587366]}}]}